{"type": "FeatureCollection", "features": [ {"type": "Feature", "properties": {"norad_id": 29808, "name": "FENGYUN 1C DEB", "group": "fengyun-1c-debris", "lat": 35.101376260698636, "lon": 107.90238794372424, "alt_km": 463.9233178768509, "timestamp": "2025-12-26T08:37:54.851795+00:00", "meta": {"OBJECT_NAME": "FENGYUN 1C DEB", "OBJECT_ID": "1999-025DA", "EPOCH": "2025-12-25T18:07:04.903968", "MEAN_MOTION": 15.30813576, "ECCENTRICITY": 0.00199044, "INCLINATION": 99.0116, "RA_OF_ASC_NODE": 280.7643, "ARG_OF_PERICENTER": 79.9805, "MEAN_ANOMALY": 332.8348, "EPHEMERIS_TYPE": 0, "CLASSIFICATION_TYPE": "U", "NORAD_CAT_ID": 29808, "ELEMENT_SET_NO": 999, "REV_AT_EPOCH": 98424, "BSTAR": 0.015828087, "MEAN_MOTION_DOT": 0.00505938, "MEAN_MOTION_DDOT": 0}, "tle": {"line1": "1 29808U 99025DA  25359.75491787  .00505938  00000+0  15828-1 0  9998", "line2": "2 29808  99.0116 280.7643 0019904  79.9805 332.8348 15.30813576984243"}}, "geometry": {"type": "Point", "coordinates": [107.90238794372424, 35.101376260698636]}}, {"type": "Feature", "properties": {"norad_id": 29809, "name": "FENGYUN 1C DEB", "group": "fengyun-1c-debris", "lat": 59.300839048673936, "lon": 159.75740040214689, "alt_km": 811.8482342987363, "timestamp": "2025-12-26T08:37:54.851805+00:00", "meta": {"OBJECT_NAME": "FENGYUN 1C DEB", "OBJECT_ID": "1999-025DB", "EPOCH": "2025-12-25T11:05:31.130304", "MEAN_MOTION": 14.46625727, "ECCENTRICITY": 0.01154, "INCLINATION": 98.862, "RA_OF_ASC_NODE": 323.5842, "ARG_OF_PERICENTER": 311.7657, "MEAN_ANOMALY": 176.1226, "EPHEMERIS_TYPE": 0, "CLASSIFICATION_TYPE": "U", "NORAD_CAT_ID": 29809, "ELEMENT_SET_NO": 999, "REV_AT_EPOCH": 99651, "BSTAR": 0.00034982, "MEAN_MOTION_DOT": 1.317e-05, "MEAN_MOTION_DDOT": 0}, "tle": {"line1": "1 29809U 99025DB  25359.46216586  .00001317  00000+0  34982-3 0  9995", "line2": "2 29809  98.8620 323.5842 0115400 311.7657 176.1226 14.46625727996510"}}, "geometry": {"type": "Point", "coordinates": [159.75740040214689, 59.300839048673936]}}, {"type": "Feature", "properties": {"norad_id": 29810, "name": "FENGYUN 1C DEB", "group": "fengyun-1c-debris", "lat": 7.717525639723354, "lon": 36.67970997429274, "alt_km": 754.4344003479118, "timestamp": "2025-12-26T08:37:54.851815+00:00", "meta": {"OBJECT_NAME": "FENGYUN 1C DEB", "OBJECT_ID": "1999-025DC", "EPOCH": "2025-12-25T14:42:47.520864", "MEAN_MOTION": 14.29147273, "ECCENTRICITY": 0.0066331, "INCLINATION": 99.2052, "RA_OF_ASC_NODE": 37.151, "ARG_OF_PERICENTER": 341.8517, "MEAN_ANOMALY": 146.6043, "EPHEMERIS_TYPE": 0, "CLASSIFICATION_TYPE": "U", "NORAD_CAT_ID": 29810, "ELEMENT_SET_NO": 999, "REV_AT_EPOCH": 98561, "BSTAR": 0.00025969, "MEAN_MOTION_DOT": 6.25e-06, "MEAN_MOTION_DDOT": 0}, "tle": {"line1": "1 29810U 99025DC  25359.61305001  .00000625  00000+0  25969-3 0  9991", "line2": "2 29810  99.2052  37.1510 0066331 341.8517 146.6043 14.29147273985617"}}, "geometry": {"type": "Point", "coordinates": [36.67970997429274, 7.717525639723354]}}, {"type": "Feature", "properties": {"norad_id": 29812, "name": "FENGYUN 1C DEB", "group": "fengyun-1c-debris", "lat": -2.1310299464153064, "lon": -171.6195422789268, "alt_km": 850.4269778820162, "timestamp": "2025-12-26T08:37:54.851825+00:00", "meta": {"OBJECT_NAME": "FENGYUN 1C DEB", "OBJECT_ID": "1999-025DE", "EPOCH": "2025-12-25T12:21:49.956192", "MEAN_MOTION": 14.02030544, "ECCENTRICITY": 0.0143663, "INCLINATION": 98.3499, "RA_OF_ASC_NODE": 187.2934, "ARG_OF_PERICENTER": 291.8261, "MEAN_ANOMALY": 124.5352, "EPHEMERIS_TYPE": 0, "CLASSIFICATION_TYPE": "U", "NORAD_CAT_ID": 29812, "ELEMENT_SET_NO": 999, "REV_AT_EPOCH": 96351, "BSTAR": 0.0010333, "MEAN_MOTION_DOT": 1.686e-05, "MEAN_MOTION_DDOT": 0}, "tle": {"line1": "1 29812U 99025DE  25359.51516153  .00001686  00000+0  10333-2 0  9990", "line2": "2 29812  98.3499 187.2934 0143663 291.8261 124.5352 14.02030544963511"}}, "geometry": {"type": "Point", "coordinates": [-171.6195422789268, -2.1310299464153064]}}, {"type": "Feature", "properties": {"norad_id": 29813, "name": "FENGYUN 1C DEB", "group": "fengyun-1c-debris", "lat": -8.94274247270005, "lon": 21.1829616228214, "alt_km": 874.0218918970804, "timestamp": "2025-12-26T08:37:54.851835+00:00", "meta": {"OBJECT_NAME": "FENGYUN 1C DEB", "OBJECT_ID": "1999-025DF", "EPOCH": "2025-12-25T14:32:10.776192", "MEAN_MOTION": 14.09454431, "ECCENTRICITY": 0.0012395, "INCLINATION": 98.7268, "RA_OF_ASC_NODE": 19.0674, "ARG_OF_PERICENTER": 184.7113, "MEAN_ANOMALY": 302.7287, "EPHEMERIS_TYPE": 0, "CLASSIFICATION_TYPE": "U", "NORAD_CAT_ID": 29813, "ELEMENT_SET_NO": 999, "REV_AT_EPOCH": 97441, "BSTAR": 5.6502e-05, "MEAN_MOTION_DOT": 5.6e-07, "MEAN_MOTION_DDOT": 0}, "tle": {"line1": "1 29813U 99025DF  25359.60568028  .00000056  00000+0  56502-4 0  9999", "line2": "2 29813  98.7268  19.0674 0012395 184.7113 302.7287 14.09454431974416"}}, "geometry": {"type": "Point", "coordinates": [21.1829616228214, -8.94274247270005]}}, {"type": "Feature", "properties": {"norad_id": 29815, "name": "FENGYUN 1C DEB", "group": "fengyun-1c-debris", "lat": 71.3476022368432, "lon": -146.61952021864633, "alt_km": 547.9048002080044, "timestamp": "2025-12-26T08:37:54.851845+00:00", "meta": {"OBJECT_NAME": "FENGYUN 1C DEB", "OBJECT_ID": "1999-025DH", "EPOCH": "2025-12-25T12:28:15.091968", "MEAN_MOTION": 14.63794363, "ECCENTRICITY": 0.0184169, "INCLINATION": 98.0553, "RA_OF_ASC_NODE": 7.7531, "ARG_OF_PERICENTER": 95.1771, "MEAN_ANOMALY": 267.0478, "EPHEMERIS_TYPE": 0, "CLASSIFICATION_TYPE": "U", "NORAD_CAT_ID": 29815, "ELEMENT_SET_NO": 999, "REV_AT_EPOCH": 38, "BSTAR": 0.00054997, "MEAN_MOTION_DOT": 3.62e-05, "MEAN_MOTION_DDOT": 0}, "tle": {"line1": "1 29815U 99025DH  25359.51961912  .00003620  00000+0  54997-3 0  9995", "line2": "2 29815  98.0553   7.7531 0184169  95.1771 267.0478 14.63794363   380"}}, "geometry": {"type": "Point", "coordinates": [-146.61952021864633, 71.3476022368432]}}, {"type": "Feature", "properties": {"norad_id": 29816, "name": "FENGYUN 1C DEB", "group": "fengyun-1c-debris", "lat": 40.59368688784609, "lon": -146.64568185540247, "alt_km": 752.3014146905734, "timestamp": "2025-12-26T08:37:54.851856+00:00", "meta": {"OBJECT_NAME": "FENGYUN 1C DEB", "OBJECT_ID": "1999-025DJ", "EPOCH": "2025-12-25T12:46:57.859104", "MEAN_MOTION": 14.44403715, "ECCENTRICITY": 0.0238002, "INCLINATION": 98.9922, "RA_OF_ASC_NODE": 220.2778, "ARG_OF_PERICENTER": 139.024, "MEAN_ANOMALY": 286.9074, "EPHEMERIS_TYPE": 0, "CLASSIFICATION_TYPE": "U", "NORAD_CAT_ID": 29816, "ELEMENT_SET_NO": 999, "REV_AT_EPOCH": 98372, "BSTAR": 0.00079271, "MEAN_MOTION_DOT": 3.81e-05, "MEAN_MOTION_DDOT": 0}, "tle": {"line1": "1 29816U 99025DJ  25359.53261411  .00003810  00000+0  79271-3 0  9998", "line2": "2 29816  98.9922 220.2778 0238002 139.0240 286.9074 14.44403715983727"}}, "geometry": {"type": "Point", "coordinates": [-146.64568185540247, 40.59368688784609]}}, {"type": "Feature", "properties": {"norad_id": 29817, "name": "FENGYUN 1C DEB", "group": "fengyun-1c-debris", "lat": -49.895304825968516, "lon": -0.7130065003420577, "alt_km": 844.2187452679364, "timestamp": "2025-12-26T08:37:54.851865+00:00", "meta": {"OBJECT_NAME": "FENGYUN 1C DEB", "OBJECT_ID": "1999-025DK", "EPOCH": "2025-12-25T22:56:20.836608", "MEAN_MOTION": 14.14268815, "ECCENTRICITY": 0.00115858, "INCLINATION": 98.5585, "RA_OF_ASC_NODE": 348.6001, "ARG_OF_PERICENTER": 337.9308, "MEAN_ANOMALY": 76.4691, "EPHEMERIS_TYPE": 0, "CLASSIFICATION_TYPE": "U", "NORAD_CAT_ID": 29817, "ELEMENT_SET_NO": 999, "REV_AT_EPOCH": 97582, "BSTAR": 0.00033067869, "MEAN_MOTION_DOT": 5.9e-06, "MEAN_MOTION_DDOT": 0}, "tle": {"line1": "1 29817U 99025DK  25359.95579672  .00000590  00000+0  33068-3 0  9992", "line2": "2 29817  98.5585 348.6001 0011585 337.9308  76.4691 14.14268815975828"}}, "geometry": {"type": "Point", "coordinates": [-0.7130065003420577, -49.895304825968516]}}, {"type": "Feature", "properties": {"norad_id": 29818, "name": "FENGYUN 1C DEB", "group": "fengyun-1c-debris", "lat": -71.95660701895773, "lon": -94.74745896162784, "alt_km": 845.4192206792823, "timestamp": "2025-12-26T08:37:54.851876+00:00", "meta": {"OBJECT_NAME": "FENGYUN 1C DEB", "OBJECT_ID": "1999-025DL", "EPOCH": "2025-12-25T14:26:58.130016", "MEAN_MOTION": 14.04511909, "ECCENTRICITY": 0.0114589, "INCLINATION": 98.7205, "RA_OF_ASC_NODE": 236.4151, "ARG_OF_PERICENTER": 349.7962, "MEAN_ANOMALY": 68.7576, "EPHEMERIS_TYPE": 0, "CLASSIFICATION_TYPE": "U", "NORAD_CAT_ID": 29818, "ELEMENT_SET_NO": 999, "REV_AT_EPOCH": 96990, "BSTAR": 0.00036195, "MEAN_MOTION_DOT": 5.7e-06, "MEAN_MOTION_DDOT": 0}, "tle": {"line1": "1 29818U 99025DL  25359.60206169  .00000570  00000+0  36195-3 0  9995", "line2": "2 29818  98.7205 236.4151 0114589 349.7962  68.7576 14.04511909969907"}}, "geometry": {"type": "Point", "coordinates": [-94.74745896162784, -71.95660701895773]}}, {"type": "Feature", "properties": {"norad_id": 29819, "name": "FENGYUN 1C DEB", "group": "fengyun-1c-debris", "lat": -73.05660463713315, "lon": 13.847230358829377, "alt_km": 925.7954152581387, "timestamp": "2025-12-26T08:37:54.851886+00:00", "meta": {"OBJECT_NAME": "FENGYUN 1C DEB", "OBJECT_ID": "1999-025DM", "EPOCH": "2025-12-25T23:00:10.957824", "MEAN_MOTION": 14.02215768, "ECCENTRICITY": 0.01915263, "INCLINATION": 98.7346, "RA_OF_ASC_NODE": 343.1557, "ARG_OF_PERICENTER": 30.2481, "MEAN_ANOMALY": 32.3496, "EPHEMERIS_TYPE": 0, "CLASSIFICATION_TYPE": "U", "NORAD_CAT_ID": 29819, "ELEMENT_SET_NO": 999, "REV_AT_EPOCH": 96805, "BSTAR": 0.00033346409, "MEAN_MOTION_DOT": 5.58e-06, "MEAN_MOTION_DDOT": 0}, "tle": {"line1": "1 29819U 99025DM  25359.95846016  .00000558  00000+0  33346-3 0  9996", "line2": "2 29819  98.7346 343.1557 0191526  30.2481  32.3496 14.02215768968059"}}, "geometry": {"type": "Point", "coordinates": [13.847230358829377, -73.05660463713315]}}]}